1  4297U 70003A   21103.55215181  .00000052  00000-0  00000+0 0  9993
2  4297   3.8168 286.3867 0012157  52.1171 278.1626  0.99156957158369
1 04297U 70003A   21104.61496286  .00000040  00000-0  00000-0 0  9996
2 04297   3.8141 286.3734 0012118  52.3056 297.3797  0.99157364158112
1 04297U 70003A   21105.60997547  .00000025  00000-0  00000-0 0  9995
2 04297   3.8115 286.3607 0012083  52.4704 292.4210  0.99157804158120
1  4297U 70003A   21105.60997547  .00000025  00000-0  00000+0 0  9994
2  4297   3.8115 286.3607 0012083  52.4704 292.4210  0.99157804158388
1 04297U 70003A   21106.45484397  .00000009  00000-0  00000-0 0  9995
2 04297   3.8094 286.3497 0012057  52.6135 233.8867  0.99158198158139
1 04297U 70003A   21106.62695741  .00000006  00000-0  00000-0 0  9998
2 04297   3.8090 286.3477 0012049  52.6279 295.3142  0.99158262158134
1 04297U 70003A   21107.63059524 -.00000017  00000-0  00000-0 0  9996
2 04297   3.8065 286.3350 0012022  52.7517 293.4779  0.99158689158142
1 04297U 70003A   21107.73153118 -.00000020  00000-0  00000-0 0  9995
2 04297   3.8062 286.3337 0012020  52.7557 329.5070  0.99158730158159
1  4297U 70003A   21107.73153118 -.00000019  00000-0  00000+0 0  9992
2  4297   3.8062 286.3337 0012020  52.7557 329.5070  0.99158730158418
1 04297U 70003A   21108.54149918 -.00000040  00000-0  00000-0 0  9990
2 04297   3.8042 286.3234 0011994  52.8805 258.5349  0.99159115158157
1 04297U 70003A   21108.80731734 -.00000047  00000-0  00000-0 0  9999
2 04297   3.8035 286.3201 0011989  52.8930 353.4166  0.99159209158163
1 04297U 70003A   21109.54179556 -.00000068  00000-0  00000-0 0  9992
2 04297   3.8017 286.3111 0011965  53.0073 255.5054  0.99159515158166
1  4297U 70003A   21109.73969266 -.00000073  00000-0  00000+0 0  9993
2  4297   3.8012 286.3086 0011964  52.9829 326.1786  0.99159612158433
1 04297U 70003A   21109.81142647 -.00000075  00000-0  00000-0 0  9991
2 04297   3.8010 286.3077 0011964  52.9890 351.7809  0.99159637158177
1 04297U 70003A   21110.62199374 -.00000099  00000-0  00000-0 0  9997
2 04297   3.7990 286.2978 0011932  53.1056 281.0331  0.99159980158170
1 04297U 70003A   21110.81556223 -.00000104  00000-0  00000-0 0  9995
2 04297   3.7985 286.2952 0011931  53.1079 350.1334  0.99160038158188
1 04297U 70003A   21111.61102992 -.00000127  00000-0  00000-0 0  9999
2 04297   3.7965 286.2856 0011905  53.2046 274.0142  0.99160302158180
1 04297U 70003A   21111.81965737 -.00000133  00000-0  00000-0 0  9992
2 04297   3.7960 286.2829 0011900  53.2165 348.4812  0.99160359158195
1  4297U 70003A   21111.81965737 -.00000133  00000-0  00000+0 0  9991
2  4297   3.7960 286.2829 0011900  53.2165 348.4812  0.99160359158454
1 04297U 70003A   21112.62385087 -.00000156  00000-0  00000-0 0  9991
2 04297   3.7940 286.2730 0011881  53.2932 275.4987  0.99160601158196
1 04297U 70003A   21112.82374961 -.00000161  00000-0  00000-0 0  9998
2 04297   3.7935 286.2704 0011881  53.2830 346.8724  0.99160658158204
1 04297U 70003A   21113.27590012 -.00000174  00000-0  00000-0 0  9999
2 04297   3.7924 286.2649 0011880  53.3501 148.2221  0.99160778158204
1 04297U 70003A   21113.75612120 -.00000186  00000-0  00000-0 0  9990
2 04297   3.7912 286.2588 0011861  53.3449 319.6661  0.99160908158211
1  4297U 70003A   21114.42611618 -.00000203  00000-0  00000+0 0  9995
2  4297   3.7895 286.2503 0011850  53.4416 198.7565  0.99161032158477
1 04297U 70003A   21114.59022936 -.00000207  00000-0  00000-0 0  9997
2 04297   3.7891 286.2482 0011844  53.4379 257.3486  0.99161063158210
1 04297U 70003A   21114.90368865 -.00000214  00000-0  00000-0 0  9994
2 04297   3.7884 286.2442 0011842  53.4382   9.2528  0.99161105158229
1 04297U 70003A   21115.54915760 -.00000229  00000-0  00000-0 0  9993
2 04297   3.7868 286.2360 0011829  53.5091 239.6141  0.99161185158221
1 04297U 70003A   21115.90773707 -.00000236  00000-0  00000-0 0  9994
2 04297   3.7859 286.2314 0011828  53.4981   7.6390  0.99161243158231
1 04297U 70003A   21116.55325037 -.00000249  00000-0  00000-0 0  9999
2 04297   3.7843 286.2230 0011817  53.5605 238.0240  0.99161259158234
1  4297U 70003A   21116.55325037 -.00000249  00000-0  00000+0 0  9998
2  4297   3.7843 286.2230 0011817  53.5605 238.0240  0.99161259158492
1 04297U 70003A   21117.48204955 -.00000266  00000-0  00000-0 0  9996
2 04297   3.7820 286.2110 0011805  53.6168 209.5497  0.99161264158242
1 04297U 70003A   21117.84422942 -.00000272  00000-0  00000-0 0  9991
2 04297   3.7811 286.2064 0011800  53.6428 338.8215  0.99161236158258
1 04297U 70003A   21118.63317661 -.00000284  00000-0  00000-0 0  9993
2 04297   3.7792 286.1960 0011791  53.6948 260.4240  0.99161165158255
1  4297U 70003A   21118.63317661 -.00000283  00000-0  00000+0 0  9991
2  4297   3.7792 286.1960 0011791  53.6948 260.4240  0.99161165158514
1 04297U 70003A   21119.42207369 -.00000294  00000-0  00000-0 0  9995
2 04297   3.7773 286.1855 0011778  53.7450 182.0102  0.99161047158267
1 04297U 70003A   21119.85241108 -.00000299  00000-0  00000-0 0  9996
2 04297   3.7762 286.1799 0011774  53.8079 335.5776  0.99160966158278
1 04297U 70003A   21120.59383782 -.00000305  00000-0  00000-0 0  9992
2 04297   3.7744 286.1700 0011758  53.8692 240.2058  0.99160810158276
1  4297U 70003A   21120.92807466 -.00000308  00000-0  00000+0 0  9991
2  4297   3.7736 286.1656 0011751  53.9345 359.4623  0.99160710158546
1 04297U 70003A   21121.47237583 -.00000311  00000-0  00000-0 0  9994
2 04297   3.7723 286.1584 0011743  53.9476 193.7634  0.99160541158282
1 04297U 70003A   21121.86050583 -.00000312  00000-0  00000-0 0  9991
2 04297   3.7713 286.1533 0011738  54.0358 332.2367  0.99160411158290
1 04297U 70003A   21122.43425628 -.00000313  00000-0  00000-0 0  9992
2 04297   3.7699 286.1456 0011724  54.0628 177.0374  0.99160218158290
1 04297U 70003A   21122.64940347 -.00000312  00000-0  00000-0 0  9994
2 04297   3.7694 286.1429 0011723  54.1121 253.7944  0.99160126158296
1  4297U 70003A   21122.93628458 -.00000312  00000-0  00000+0 0  9991
2  4297   3.7687 286.1391 0011713  54.1852 356.1367  0.99160011158566
1 04297U 70003A   21123.43829366 -.00000310  00000-0  00000-0 0  9997
2 04297   3.7675 286.1325 0011704  54.1915 175.3454  0.99159806158300
1 04297U 70003A   21123.86867255 -.00000307  00000-0  00000-0 0  9999
2 04297   3.7664 286.1271 0011693  54.3107 328.8689  0.99159616158315
1 04297U 70003A   21124.44242087 -.00000301  00000-0  00000-0 0  9998
2 04297   3.7650 286.1196 0011679  54.3421 173.6625  0.99159366158317
1 04297U 70003A   21124.87272172 -.00000296  00000-0  00000-0 0  9996
2 04297   3.7639 286.1141 0011665  54.4583 327.1614  0.99159179158326
1  4297U 70003A   21124.94451687 -.00000294  00000-0  00000+0 0  9991
2  4297   3.7638 286.1131 0011660  54.4783 352.7714  0.99159135158586
1 04297U 70003A   21125.37477325 -.00000288  00000-0  00000-0 0  9990
2 04297   3.7627 286.1077 0011647  54.4932 146.3537  0.99158906158321
1 04297U 70003A   21125.87686898 -.00000279  00000-0  00000-0 0  9992
2 04297   3.7614 286.1013 0011635  54.6138 325.4766  0.99158649158333
1 04297U 70003A   21126.52232293 -.00000265  00000-0  00000-0 0  9996
2 04297   3.7598 286.0929 0011619  54.6661 195.8451  0.99158320158338
1 04297U 70003A   21126.88095819 -.00000257  00000-0  00000-0 0  9997
2 04297   3.7589 286.0885 0011605  54.7657 323.7745  0.99158137158345
1  4297U 70003A   21126.98682078 -.00000254  00000-0  00000+0 0  9993
2  4297   3.7586 286.0870 0011596  54.7915   1.5402  0.99158069158606
1 04297U 70003A   21127.45467698 -.00000243  00000-0  00000-0 0  9994
2 04297   3.7574 286.0810 0011588  54.8076 168.5428  0.99157820158344
1 04297U 70003A   21127.92720638 -.00000230  00000-0  00000-0 0  9998
2 04297   3.7562 286.0751 0011570  54.9307 337.1066  0.99157570158359
1 04297U 70003A   21128.53047314 -.00000212  00000-0  00000-0 0  9999
2 04297   3.7547 286.0671 0011555  54.9733 192.4210  0.99157223158357
1 04297U 70003A   21128.88914475 -.00000201  00000-0  00000-0 0  9996
2 04297   3.7538 286.0626 0011537  55.0802 320.3553  0.99157053158360
1 04297U 70003A   21129.24777154 -.00000190  00000-0  00000-0 0  9995
2 04297   3.7529 286.0579 0011518  55.1046  88.3552  0.99156862158364
1 04297U 70003A   21129.46285924 -.00000184  00000-0  00000-0 0  9991
2 04297   3.7523 286.0550 0011516  55.1295 165.1136  0.99156761158361
1  4297U 70003A   21129.46285924 -.00000183  00000-0  00000+0 0  9999
2  4297   3.7523 286.0550 0011516  55.1295 165.1136  0.99156761158620
1 04297U 70003A   21129.74976080 -.00000175  00000-0  00000-0 0  9992
2 04297   3.7516 286.0512 0011510  55.2016 267.4602  0.99156605158368
1 04297U 70003A   21130.39523263 -.00000154  00000-0  00000-0 0  9993
2 04297   3.7499 286.0427 0011482  55.2646 137.8194  0.99156267158371
1 04297U 70003A   21130.89729736 -.00000137  00000-0  00000-0 0  9992
2 04297   3.7487 286.0360 0011466  55.3786 316.9335  0.99156026158383
1 04297U 70003A   21131.04071318 -.00000133  00000-0  00000-0 0  9992
2 04297   3.7483 286.0339 0011456  55.4007   8.1077  0.99155936158383
1  4297U 70003A   21131.75792097 -.00000109  00000-0  00000+0 0  9996
2  4297   3.7465 286.0243 0011434  55.4989 264.0389  0.99155611158640
1 04297U 70003A   21131.82962890 -.00000107  00000-0  00000-0 0  9993
2 04297   3.7463 286.0236 0011430  55.5137 289.6221  0.99155576158381
1 04297U 70003A   21132.61751022 -.00000082  00000-0  00000-0 0  9996
2 04297   3.7442 286.0125 0011401  55.6015 210.7927  0.99155252158399
1 04297U 70003A   21132.76201199 -.00000078  00000-0  00000-0 0  9992
2 04297   3.7439 286.0107 0011396  55.6292 262.3492  0.99155199158395
1 04297U 70003A   21133.04889664 -.00000069  00000-0  00000-0 0  9993
2 04297   3.7431 286.0068 0011378  55.6743   4.7147  0.99155059158406
1  4297U 70003A   21134.05298449 -.00000039  00000-0  00000+0 0  9996
2  4297   3.7406 285.9932 0011341  55.7891   3.0361  0.99154682158671
1 04297U 70003A   21134.48334495 -.00000027  00000-0  00000-0 0  9993
2 04297   3.7395 285.9875 0011327  55.8277 156.6271  0.99154572158412
